{"type": "FeatureCollection", "features": [ {"type": "Feature", "properties": {"norad_id": 31313, "name": "FENGYUN 1C DEB", "group": "fengyun-1c-debris", "lat": -48.662051794842064, "lon": 56.38470035534741, "alt_km": 799.0326302394105, "timestamp": "2025-12-08T23:34:04.251211+00:00", "meta": {"OBJECT_NAME": "FENGYUN 1C DEB", "OBJECT_ID": "1999-025BPR", "EPOCH": "2025-12-07T11:02:13.226784", "MEAN_MOTION": 14.22263344, "ECCENTRICITY": 0.00443954, "INCLINATION": 99.015, "RA_OF_ASC_NODE": 245.2258, "ARG_OF_PERICENTER": 196.4583, "MEAN_ANOMALY": 163.5155, "EPHEMERIS_TYPE": 0, "CLASSIFICATION_TYPE": "U", "NORAD_CAT_ID": 31313, "ELEMENT_SET_NO": 999, "REV_AT_EPOCH": 96987, "BSTAR": 0.00053787088, "MEAN_MOTION_DOT": 1.16e-05, "MEAN_MOTION_DDOT": 0}, "tle": {"line1": "1 31313U 99025BPR 25341.45987531  .00001160  00000+0  53787-3 0  9993", "line2": "2 31313  99.0150 245.2258 0044395 196.4583 163.5155 14.22263344969872"}}, "geometry": {"type": "Point", "coordinates": [56.38470035534741, -48.662051794842064]}}, {"type": "Feature", "properties": {"norad_id": 31314, "name": "FENGYUN 1C DEB", "group": "fengyun-1c-debris", "lat": 26.158352841527382, "lon": 161.470492594644, "alt_km": 922.9758050015562, "timestamp": "2025-12-08T23:34:04.251221+00:00", "meta": {"OBJECT_NAME": "FENGYUN 1C DEB", "OBJECT_ID": "1999-025BPS", "EPOCH": "2025-12-06T05:53:33.958752", "MEAN_MOTION": 14.04913607, "ECCENTRICITY": 0.00791603, "INCLINATION": 98.8218, "RA_OF_ASC_NODE": 334.4356, "ARG_OF_PERICENTER": 15.6231, "MEAN_ANOMALY": 344.7353, "EPHEMERIS_TYPE": 0, "CLASSIFICATION_TYPE": "U", "NORAD_CAT_ID": 31314, "ELEMENT_SET_NO": 999, "REV_AT_EPOCH": 60723, "BSTAR": 0.00045752491, "MEAN_MOTION_DOT": 7.13e-06, "MEAN_MOTION_DDOT": 0}, "tle": {"line1": "1 31314U 99025BPS 25340.24553193  .00000713  00000+0  45752-3 0  9999", "line2": "2 31314  98.8218 334.4356 0079160  15.6231 344.7353 14.04913607607231"}}, "geometry": {"type": "Point", "coordinates": [161.470492594644, 26.158352841527382]}}, {"type": "Feature", "properties": {"norad_id": 31319, "name": "FENGYUN 1C DEB", "group": "fengyun-1c-debris", "lat": 47.05792902288226, "lon": -127.54952540633688, "alt_km": 890.9656072604357, "timestamp": "2025-12-08T23:34:04.251231+00:00", "meta": {"OBJECT_NAME": "FENGYUN 1C DEB", "OBJECT_ID": "1999-025BPX", "EPOCH": "2025-12-08T11:58:45.722784", "MEAN_MOTION": 13.75826107, "ECCENTRICITY": 0.01706194, "INCLINATION": 98.8308, "RA_OF_ASC_NODE": 241.6186, "ARG_OF_PERICENTER": 98.186, "MEAN_ANOMALY": 80.8803, "EPHEMERIS_TYPE": 0, "CLASSIFICATION_TYPE": "U", "NORAD_CAT_ID": 31319, "ELEMENT_SET_NO": 999, "REV_AT_EPOCH": 93629, "BSTAR": 0.00027268157, "MEAN_MOTION_DOT": 2.55e-06, "MEAN_MOTION_DDOT": 0}, "tle": {"line1": "1 31319U 99025BPX 25342.49914031  .00000255  00000+0  27268-3 0  9998", "line2": "2 31319  98.8308 241.6186 0170619  98.1860  80.8803 13.75826107936295"}}, "geometry": {"type": "Point", "coordinates": [-127.54952540633688, 47.05792902288226]}}, {"type": "Feature", "properties": {"norad_id": 31321, "name": "FENGYUN 1C DEB", "group": "fengyun-1c-debris", "lat": -8.009390783759708, "lon": -119.30192552720898, "alt_km": 829.0130992371423, "timestamp": "2025-12-08T23:34:04.251242+00:00", "meta": {"OBJECT_NAME": "FENGYUN 1C DEB", "OBJECT_ID": "1999-025BPZ", "EPOCH": "2025-11-28T23:11:37.489632", "MEAN_MOTION": 14.13809948, "ECCENTRICITY": 0.00293651, "INCLINATION": 98.7348, "RA_OF_ASC_NODE": 52.1537, "ARG_OF_PERICENTER": 217.1862, "MEAN_ANOMALY": 142.7277, "EPHEMERIS_TYPE": 0, "CLASSIFICATION_TYPE": "U", "NORAD_CAT_ID": 31321, "ELEMENT_SET_NO": 999, "REV_AT_EPOCH": 57189, "BSTAR": 0.00017233355, "MEAN_MOTION_DOT": 2.84e-06, "MEAN_MOTION_DDOT": 0}, "tle": {"line1": "1 31321U 99025BPZ 25332.96640613  .00000284  00000+0  17233-3 0  9997", "line2": "2 31321  98.7348  52.1537 0029365 217.1862 142.7277 14.13809948571893"}}, "geometry": {"type": "Point", "coordinates": [-119.30192552720898, -8.009390783759708]}}, {"type": "Feature", "properties": {"norad_id": 31322, "name": "FENGYUN 1C DEB", "group": "fengyun-1c-debris", "lat": 56.44296190247111, "lon": 33.999640312026784, "alt_km": 841.7244027402985, "timestamp": "2025-12-08T23:34:04.251252+00:00", "meta": {"OBJECT_NAME": "FENGYUN 1C DEB", "OBJECT_ID": "1999-025BQA", "EPOCH": "2025-12-07T10:39:23.880096", "MEAN_MOTION": 13.72993724, "ECCENTRICITY": 0.02387912, "INCLINATION": 98.574, "RA_OF_ASC_NODE": 45.7668, "ARG_OF_PERICENTER": 24.4081, "MEAN_ANOMALY": 353.7354, "EPHEMERIS_TYPE": 0, "CLASSIFICATION_TYPE": "U", "NORAD_CAT_ID": 31322, "ELEMENT_SET_NO": 999, "REV_AT_EPOCH": 62203, "BSTAR": 0.00031634654, "MEAN_MOTION_DOT": 3.21e-06, "MEAN_MOTION_DDOT": 0}, "tle": {"line1": "1 31322U 99025BQA 25341.44402639  .00000321  00000+0  31635-3 0  9999", "line2": "2 31322  98.5740  45.7668 0238791  24.4081 353.7354 13.72993724622031"}}, "geometry": {"type": "Point", "coordinates": [33.999640312026784, 56.44296190247111]}}, {"type": "Feature", "properties": {"norad_id": 31323, "name": "FENGYUN 1C DEB", "group": "fengyun-1c-debris", "lat": -44.27976082031686, "lon": 30.478699277911538, "alt_km": 822.8045355569575, "timestamp": "2025-12-08T23:34:04.251262+00:00", "meta": {"OBJECT_NAME": "FENGYUN 1C DEB", "OBJECT_ID": "1999-025BQB", "EPOCH": "2025-12-05T21:45:51.609312", "MEAN_MOTION": 14.27517995, "ECCENTRICITY": 0.00318863, "INCLINATION": 99.4204, "RA_OF_ASC_NODE": 17.85, "ARG_OF_PERICENTER": 99.214, "MEAN_ANOMALY": 261.2647, "EPHEMERIS_TYPE": 0, "CLASSIFICATION_TYPE": "U", "NORAD_CAT_ID": 31323, "ELEMENT_SET_NO": 999, "REV_AT_EPOCH": 63883, "BSTAR": 0.0025505728, "MEAN_MOTION_DOT": 6.258e-05, "MEAN_MOTION_DDOT": 0}, "tle": {"line1": "1 31323U 99025BQB 25339.90684733  .00006258  00000+0  25506-2 0  9999", "line2": "2 31323  99.4204  17.8500 0031886  99.2140 261.2647 14.27517995638830"}}, "geometry": {"type": "Point", "coordinates": [30.478699277911538, -44.27976082031686]}}, {"type": "Feature", "properties": {"norad_id": 31324, "name": "FENGYUN 1C DEB", "group": "fengyun-1c-debris", "lat": -56.94663986530483, "lon": 70.07898323677097, "alt_km": 842.1880802505138, "timestamp": "2025-12-08T23:34:04.251273+00:00", "meta": {"OBJECT_NAME": "FENGYUN 1C DEB", "OBJECT_ID": "1999-025BQC", "EPOCH": "2025-12-07T05:42:12.838176", "MEAN_MOTION": 14.1468856, "ECCENTRICITY": 0.00495023, "INCLINATION": 99.1231, "RA_OF_ASC_NODE": 262.5935, "ARG_OF_PERICENTER": 319.9543, "MEAN_ANOMALY": 39.7984, "EPHEMERIS_TYPE": 0, "CLASSIFICATION_TYPE": "U", "NORAD_CAT_ID": 31324, "ELEMENT_SET_NO": 999, "REV_AT_EPOCH": 96408, "BSTAR": 0.0003363527, "MEAN_MOTION_DOT": 6.08e-06, "MEAN_MOTION_DDOT": 0}, "tle": {"line1": "1 31324U 99025BQC 25341.23764859  .00000608  00000+0  33635-3 0  9993", "line2": "2 31324  99.1231 262.5935 0049502 319.9543  39.7984 14.14688560964086"}}, "geometry": {"type": "Point", "coordinates": [70.07898323677097, -56.94663986530483]}}, {"type": "Feature", "properties": {"norad_id": 31325, "name": "FENGYUN 1C DEB", "group": "fengyun-1c-debris", "lat": 59.07018476609539, "lon": -87.57979417006632, "alt_km": 848.8838526295995, "timestamp": "2025-12-08T23:34:04.251284+00:00", "meta": {"OBJECT_NAME": "FENGYUN 1C DEB", "OBJECT_ID": "1999-025BQD", "EPOCH": "2025-12-08T12:49:45.026688", "MEAN_MOTION": 14.16832394, "ECCENTRICITY": 0.0071877, "INCLINATION": 98.9914, "RA_OF_ASC_NODE": 76.6463, "ARG_OF_PERICENTER": 232.309, "MEAN_ANOMALY": 127.1552, "EPHEMERIS_TYPE": 0, "CLASSIFICATION_TYPE": "U", "NORAD_CAT_ID": 31325, "ELEMENT_SET_NO": 999, "REV_AT_EPOCH": 59718, "BSTAR": 0.0032596677, "MEAN_MOTION_DOT": 6.657e-05, "MEAN_MOTION_DDOT": 0}, "tle": {"line1": "1 31325U 99025BQD 25342.53454892  .00006657  00000+0  32597-2 0  9996", "line2": "2 31325  98.9914  76.6463 0071877 232.3090 127.1552 14.16832394597181"}}, "geometry": {"type": "Point", "coordinates": [-87.57979417006632, 59.07018476609539]}}, {"type": "Feature", "properties": {"norad_id": 31326, "name": "FENGYUN 1C DEB", "group": "fengyun-1c-debris", "lat": 37.565734751193254, "lon": -142.62956146402294, "alt_km": 565.0674856132173, "timestamp": "2025-12-08T23:34:04.251294+00:00", "meta": {"OBJECT_NAME": "FENGYUN 1C DEB", "OBJECT_ID": "1999-025BQE", "EPOCH": "2025-11-25T14:42:32.298048", "MEAN_MOTION": 14.96360134, "ECCENTRICITY": 0.00187059, "INCLINATION": 99.013, "RA_OF_ASC_NODE": 208.9742, "ARG_OF_PERICENTER": 1.9794, "MEAN_ANOMALY": 358.1494, "EPHEMERIS_TYPE": 0, "CLASSIFICATION_TYPE": "U", "NORAD_CAT_ID": 31326, "ELEMENT_SET_NO": 999, "REV_AT_EPOCH": 73489, "BSTAR": 0.0084230344, "MEAN_MOTION_DOT": 0.00096893, "MEAN_MOTION_DDOT": 0}, "tle": {"line1": "1 31326U 99025BQE 25329.61287382  .00096893  00000+0  84230-2 0  9991", "line2": "2 31326  99.0130 208.9742 0018705   1.9794 358.1494 14.96360134734894"}}, "geometry": {"type": "Point", "coordinates": [-142.62956146402294, 37.565734751193254]}}, {"type": "Feature", "properties": {"norad_id": 31327, "name": "FENGYUN 1C DEB", "group": "fengyun-1c-debris", "lat": 49.69973633691649, "lon": -27.037046801178363, "alt_km": 476.12365956367466, "timestamp": "2025-12-08T23:34:04.251304+00:00", "meta": {"OBJECT_NAME": "FENGYUN 1C DEB", "OBJECT_ID": "1999-025BQF", "EPOCH": "2025-12-06T06:09:55.835136", "MEAN_MOTION": 15.10366865, "ECCENTRICITY": 0.00883653, "INCLINATION": 98.9841, "RA_OF_ASC_NODE": 340.5203, "ARG_OF_PERICENTER": 31.1175, "MEAN_ANOMALY": 329.5241, "EPHEMERIS_TYPE": 0, "CLASSIFICATION_TYPE": "U", "NORAD_CAT_ID": 31327, "ELEMENT_SET_NO": 999, "REV_AT_EPOCH": 1, "BSTAR": 0.0026153573, "MEAN_MOTION_DOT": 0.00047286, "MEAN_MOTION_DDOT": 0}, "tle": {"line1": "1 31327U 99025BQF 25340.25689624  .00047286  00000+0  26154-2 0  9993", "line2": "2 31327  98.9841 340.5203 0088365  31.1175 329.5241 15.10366865    10"}}, "geometry": {"type": "Point", "coordinates": [-27.037046801178363, 49.69973633691649]}}]}